[{"OBJECT_NAME":"KINEIS-5E","OBJECT_ID":"2024-219C","EPOCH":"2026-03-27T11:42:45.220032","MEAN_MOTION":14.72335915,"ECCENTRICITY":0.0005534,"INCLINATION":97.9358,"RA_OF_ASC_NODE":247.716,"ARG_OF_PERICENTER":117.3564,"MEAN_ANOMALY":242.8208,"EPHEMERIS_TYPE":0,"CLASSIFICATION_TYPE":"U","NORAD_CAT_ID":62083,"ELEMENT_SET_NO":999,"REV_AT_EPOCH":7174,"BSTAR":5.3987e-5,"MEAN_MOTION_DOT":2.93e-6,"MEAN_MOTION_DDOT":0},{"OBJECT_NAME":"KINEIS-5A","OBJECT_ID":"2024-219D","EPOCH":"2026-03-28T14:37:23.556288","MEAN_MOTION":14.72231827,"ECCENTRICITY":0.00049226,"INCLINATION":97.957,"RA_OF_ASC_NODE":248.9562,"ARG_OF_PERICENTER":145.6618,"MEAN_ANOMALY":214.4908,"EPHEMERIS_TYPE":0,"CLASSIFICATION_TYPE":"U","NORAD_CAT_ID":62084,"ELEMENT_SET_NO":999,"REV_AT_EPOCH":7191,"BSTAR":0.00018715174,"MEAN_MOTION_DOT":1.132e-5,"MEAN_MOTION_DDOT":0},{"OBJECT_NAME":"KINEIS-5B","OBJECT_ID":"2024-219E","EPOCH":"2026-03-28T13:34:08.616864","MEAN_MOTION":14.78137206,"ECCENTRICITY":0.00026952,"INCLINATION":97.9978,"RA_OF_ASC_NODE":251.9127,"ARG_OF_PERICENTER":143.2175,"MEAN_ANOMALY":216.9221,"EPHEMERIS_TYPE":0,"CLASSIFICATION_TYPE":"U","NORAD_CAT_ID":62085,"ELEMENT_SET_NO":999,"REV_AT_EPOCH":7209,"BSTAR":0.00022741237,"MEAN_MOTION_DOT":1.594e-5,"MEAN_MOTION_DDOT":0},{"OBJECT_NAME":"KINEIS-2C","OBJECT_ID":"2025-028B","EPOCH":"2026-03-28T03:27:54.221184","MEAN_MOTION":14.72306821,"ECCENTRICITY":6.19e-5,"INCLINATION":98.0287,"RA_OF_ASC_NODE":142.0783,"ARG_OF_PERICENTER":136.6903,"MEAN_ANOMALY":223.4353,"EPHEMERIS_TYPE":0,"CLASSIFICATION_TYPE":"U","NORAD_CAT_ID":62929,"ELEMENT_SET_NO":999,"REV_AT_EPOCH":6068,"BSTAR":0.0002061,"MEAN_MOTION_DOT":1.253e-5,"MEAN_MOTION_DDOT":0},{"OBJECT_NAME":"KINEIS-2D","OBJECT_ID":"2025-028C","EPOCH":"2026-03-28T13:25:07.828896","MEAN_MOTION":14.75414906,"ECCENTRICITY":0.00047466,"INCLINATION":97.9373,"RA_OF_ASC_NODE":141.5413,"ARG_OF_PERICENTER":103.1274,"MEAN_ANOMALY":257.0465,"EPHEMERIS_TYPE":0,"CLASSIFICATION_TYPE":"U","NORAD_CAT_ID":62930,"ELEMENT_SET_NO":999,"REV_AT_EPOCH":6082,"BSTAR":0.00027301786,"MEAN_MOTION_DOT":1.805e-5,"MEAN_MOTION_DDOT":0},{"OBJECT_NAME":"KINEIS-2E","OBJECT_ID":"2025-028D","EPOCH":"2026-03-28T14:26:31.271712","MEAN_MOTION":14.76777311,"ECCENTRICITY":0.00020161,"INCLINATION":97.9043,"RA_OF_ASC_NODE":140.932,"ARG_OF_PERICENTER":93.4954,"MEAN_ANOMALY":266.6487,"EPHEMERIS_TYPE":0,"CLASSIFICATION_TYPE":"U","NORAD_CAT_ID":62931,"ELEMENT_SET_NO":999,"REV_AT_EPOCH":6088,"BSTAR":0.00023521097,"MEAN_MOTION_DOT":1.599e-5,"MEAN_MOTION_DDOT":0},{"OBJECT_NAME":"KINEIS-2A","OBJECT_ID":"2025-028E","EPOCH":"2026-03-28T13:59:56.060736","MEAN_MOTION":14.72151434,"ECCENTRICITY":0.00014657,"INCLINATION":98.0927,"RA_OF_ASC_NODE":142.9868,"ARG_OF_PERICENTER":140.0949,"MEAN_ANOMALY":220.0366,"EPHEMERIS_TYPE":0,"CLASSIFICATION_TYPE":"U","NORAD_CAT_ID":62932,"ELEMENT_SET_NO":999,"REV_AT_EPOCH":6074,"BSTAR":0.00019861248,"MEAN_MOTION_DOT":1.201e-5,"MEAN_MOTION_DDOT":0},{"OBJECT_NAME":"KINEIS-2B","OBJECT_ID":"2025-028G","EPOCH":"2026-03-28T14:10:52.819968","MEAN_MOTION":14.73171272,"ECCENTRICITY":0.00045954,"INCLINATION":97.9755,"RA_OF_ASC_NODE":141.8957,"ARG_OF_PERICENTER":65.3491,"MEAN_ANOMALY":294.8195,"EPHEMERIS_TYPE":0,"CLASSIFICATION_TYPE":"U","NORAD_CAT_ID":62934,"ELEMENT_SET_NO":999,"REV_AT_EPOCH":6079,"BSTAR":0.00022612613,"MEAN_MOTION_DOT":1.409e-5,"MEAN_MOTION_DDOT":0},{"OBJECT_NAME":"KINEIS-4E","OBJECT_ID":"2025-056A","EPOCH":"2026-03-27T19:58:39.530208","MEAN_MOTION":14.72273762,"ECCENTRICITY":0.00013559,"INCLINATION":97.9728,"RA_OF_ASC_NODE":212.8182,"ARG_OF_PERICENTER":143.5789,"MEAN_ANOMALY":216.5511,"EPHEMERIS_TYPE":0,"CLASSIFICATION_TYPE":"U","NORAD_CAT_ID":63300,"ELEMENT_SET_NO":999,"REV_AT_EPOCH":5515,"BSTAR":0.00011884956,"MEAN_MOTION_DOT":7.02e-6,"MEAN_MOTION_DDOT":0},{"OBJECT_NAME":"KINEIS-4C","OBJECT_ID":"2025-056B","EPOCH":"2026-03-27T21:54:03.951072","MEAN_MOTION":14.72306595,"ECCENTRICITY":0.0001892,"INCLINATION":97.9794,"RA_OF_ASC_NODE":213.0752,"ARG_OF_PERICENTER":158.4621,"MEAN_ANOMALY":201.6666,"EPHEMERIS_TYPE":0,"CLASSIFICATION_TYPE":"U","NORAD_CAT_ID":63301,"ELEMENT_SET_NO":999,"REV_AT_EPOCH":5517,"BSTAR":-4.1378e-5,"MEAN_MOTION_DOT":-3.1e-6,"MEAN_MOTION_DDOT":0},{"OBJECT_NAME":"KINEIS-4D","OBJECT_ID":"2025-056C","EPOCH":"2026-03-28T02:54:36.386208","MEAN_MOTION":14.7232248,"ECCENTRICITY":0.00018241,"INCLINATION":97.9779,"RA_OF_ASC_NODE":213.2545,"ARG_OF_PERICENTER":176.3612,"MEAN_ANOMALY":183.7609,"EPHEMERIS_TYPE":0,"CLASSIFICATION_TYPE":"U","NORAD_CAT_ID":63302,"ELEMENT_SET_NO":999,"REV_AT_EPOCH":5520,"BSTAR":0.0002952217,"MEAN_MOTION_DOT":1.818e-5,"MEAN_MOTION_DDOT":0},{"OBJECT_NAME":"KINEIS-4A","OBJECT_ID":"2025-056D","EPOCH":"2026-03-27T09:45:24.725088","MEAN_MOTION":14.72349551,"ECCENTRICITY":0.0002702,"INCLINATION":97.9809,"RA_OF_ASC_NODE":212.4867,"ARG_OF_PERICENTER":176.552,"MEAN_ANOMALY":183.5707,"EPHEMERIS_TYPE":0,"CLASSIFICATION_TYPE":"U","NORAD_CAT_ID":63303,"ELEMENT_SET_NO":999,"REV_AT_EPOCH":5509,"BSTAR":-4.7649e-5,"MEAN_MOTION_DOT":-3.5e-6,"MEAN_MOTION_DDOT":0},{"OBJECT_NAME":"KINEIS-4B","OBJECT_ID":"2025-056E","EPOCH":"2026-03-27T07:43:28.329888","MEAN_MOTION":14.72335248,"ECCENTRICITY":0.0004133,"INCLINATION":97.9812,"RA_OF_ASC_NODE":212.4468,"ARG_OF_PERICENTER":147.7098,"MEAN_ANOMALY":212.4363,"EPHEMERIS_TYPE":0,"CLASSIFICATION_TYPE":"U","NORAD_CAT_ID":63304,"ELEMENT_SET_NO":999,"REV_AT_EPOCH":5507,"BSTAR":-5.5872e-5,"MEAN_MOTION_DOT":-4.02e-6,"MEAN_MOTION_DDOT":0}]
